STARLINK-37656          
1 69649U 26143A   26201.12547199  .00024591  00000+0  45214-3 0  9998
2 69649  97.2796 245.0524 0000327 203.3173 156.8064 15.49205713  5641
STARLINK-37646          
1 69650U 26143B   26201.58335648 -.01098045  00000+0 -32737-1 0  9996
2 69650  97.2854 245.6481 0001523 121.0216 220.1234 15.37389023  5827
STARLINK-37749          
1 69651U 26143C   26201.58335648 -.02764892  00000+0 -68496-1 0  9999
2 69651  97.2846 245.6778 0001641  54.9569 341.5511 15.44446111  5820
STARLINK-37819          
1 69652U 26143D   26201.58335648  .00062031  00000+0  17072-2 0  9997
2 69652  97.2851 245.6105 0001891  87.8912 158.2736 15.36946704  5821
STARLINK-37729          
1 69653U 26143E   26201.58335648 -.02566313  00000+0 -35610-1 0  9991
2 69653  97.2850 246.2460 0001457 103.3018 202.0573 15.60769813  5829
STARLINK-37838          
1 69654U 26143F   26201.58335648 -.02965017  00000+0 -85000-1 0  9994
2 69654  97.2838 245.7111 0001652  55.5230  50.3749 15.39719258  5827
STARLINK-37884          
1 69655U 26143G   26201.58335648  .00057472  00000+0  15824-2 0  9996
2 69655  97.2852 245.5820 0001523 104.4015  75.6252 15.36955180  5823
STARLINK-37876          
1 69656U 26143H   26201.58335648  .00051509  00000+0  14196-2 0  9993
2 69656  97.2849 245.6612 0001056 103.0969 262.8620 15.36955974  5723
STARLINK-37784          
1 69657U 26143J   26201.39405086  .00024996  00000+0  45957-3 0  9997
2 69657  97.2818 245.4560 0001085  97.5434 262.5940 15.49203292  5620
STARLINK-37851          
1 69658U 26143K   26201.58335648  .00058152  00000+0  16015-2 0  9998
2 69658  97.2849 245.6833 0001378  91.1820 327.7195 15.36944646  5711
STARLINK-37229          
1 69659U 26143L   26201.58335648  .00061056  00000+0  18797-2 0  9995
2 69659  97.2854 245.6102 0001673  89.1003 155.5361 15.33420214  5769
STARLINK-37556          
1 69660U 26143M   26201.58335648  .00057298  00000+0  17647-2 0  9993
2 69660  97.2851 245.5912 0001267 100.1460  99.5125 15.33426392  5764
STARLINK-37867          
1 69661U 26143N   26201.58335648  .00062610  00000+0  19288-2 0  9991
2 69661  97.2852 245.6248 0001333  69.8195 204.9001 15.33393390  5721
STARLINK-37852          
1 69662U 26143P   26201.58335648 -.02641823  00000+0 -77963-1 0  9998
2 69662  97.2845 245.6267 0002213  70.7117 205.6028 15.39029851  5729
STARLINK-37554          
1 69663U 26143Q   26201.58335648  .00055409  00000+0  15261-2 0  9998
2 69663  97.2853 245.6192 0001549  99.6837 169.7975 15.36955119  5763
STARLINK-37830          
1 69664U 26143R   26201.58335648 -.03046891  00000+0 -95103-1 0  9991
2 69664  97.2848 245.5991 0001462  90.9315 134.4956 15.37240554  5717
STARLINK-37837          
1 69665U 26143S   26200.11535321  .00016108  00000+0  44705-3 0  9997
2 69665  97.2825 244.1348 0000572  75.1318 284.9990 15.36985958  5423
STARLINK-37943          
1 69666U 26143T   26201.58335648  .00049730  00000+0  13732-2 0  9992
2 69666  97.2845 245.6434 0001104  55.2948 257.2092 15.36905020  5729
STARLINK-37941          
1 69667U 26143U   26201.58335648  .00064470  00000+0  17743-2 0  9997
2 69667  97.2851 245.6466 0001696  64.1020 269.9394 15.36937464  5720
STARLINK-37930          
1 69668U 26143V   26201.58335648  .00060702  00000+0  16720-2 0  9996
2 69668  97.2850 245.6499 0001266  82.2920 259.7769 15.36927852  5711
STARLINK-37945          
1 69669U 26143W   26201.58335648 -.00535809  00000+0 -15792-1 0  9991
2 69669  97.2842 245.6722 0000753  78.2449 321.5354 15.37190592  5726
STARLINK-37948          
1 69670U 26143X   26201.08930788  .00013635  00000+0  25161-3 0  9993
2 69670  97.2835 245.1070 0001605 120.3890 239.7520 15.49225872  5578
STARLINK-37949          
1 69671U 26143Y   26201.12952215  .00032562  00000+0  59765-3 0  9995
2 69671  97.2829 245.2028 0000802 172.7451 187.3812 15.49201845  5585
STARLINK-37946          
1 69672U 26143Z   26201.58335648 -.02682831  00000+0 -69559-1 0  9995
2 69672  97.2858 245.6954 0002305  74.6947 358.4806 15.42971680  5724
TJS-26A                 
1 69674U 26144A   26201.28316926 -.00000350  00000+0  00000+0 0  9994
2 69674   6.9413 323.2321 0004025 350.0449 194.2716  1.00271367   275
STARLINK-38005          
1 69677U 26145A   26200.56011397  .00094165  00000+0  62491-3 0  9994
2 69677  97.2838  47.6078 0001134  83.5509 276.5886 15.75203109  3867
STARLINK-38009          
1 69678U 26145B   26201.57524657 -.01083529  00000+0 -89758-2 0  9994
2 69678  97.2856  48.6768 0001046 308.1163  52.0007 15.72776591  4027
STARLINK-37998          
1 69679U 26145C   26201.50878696  .00179571  00000+0  11753-2 0  9993
2 69679  97.2843  48.6141 0000982  74.4604 285.6770 15.75276562  4016
STARLINK-37994          
1 69680U 26145D   26201.58335648 -.02475163  00000+0 -22881-1 0  9991
2 69680  97.2848  48.6850 0001726  65.6284 342.2833 15.70706609  5299
