OBJECT_NAME,OBJECT_ID,EPOCH,MEAN_MOTION,ECCENTRICITY,INCLINATION,RA_OF_ASC_NODE,ARG_OF_PERICENTER,MEAN_ANOMALY,EPHEMERIS_TYPE,CLASSIFICATION_TYPE,NORAD_CAT_ID,ELEMENT_SET_NO,REV_AT_EPOCH,BSTAR,MEAN_MOTION_DOT,MEAN_MOTION_DDOT
STARLINK-37656,2026-143A,2026-07-20T03:00:40.779936,15.49205713,.00003273,97.2796,245.0524,203.3173,156.8064,0,U,69649,999,564,.4521353E-3,.24591E-3,0
STARLINK-37646,2026-143B,2026-07-20T14:00:01.999872,15.37389023,.00015236,97.2854,245.6481,121.0216,220.1234,0,U,69650,999,582,-.32737067E-1,-.1098045E-1,0
STARLINK-37749,2026-143C,2026-07-20T14:00:01.999872,15.44446111,.00016418,97.2846,245.6778,54.9569,341.5511,0,U,69651,999,582,-.68496283E-1,-.2764892E-1,0
STARLINK-37819,2026-143D,2026-07-20T14:00:01.999872,15.36946704,.00018913,97.2851,245.6105,87.8912,158.2736,0,U,69652,999,582,.17072216E-2,.62031E-3,0
STARLINK-37729,2026-143E,2026-07-20T14:00:01.999872,15.60769813,.00014577,97.2850,246.2460,103.3018,202.0573,0,U,69653,999,582,-.35609684E-1,-.2566313E-1,0
STARLINK-37838,2026-143F,2026-07-20T14:00:01.999872,15.39719258,.0001652,97.2838,245.7111,55.5230,50.3749,0,U,69654,999,582,-.84999584E-1,-.2965017E-1,0
STARLINK-37884,2026-143G,2026-07-20T14:00:01.999872,15.36955180,.00015232,97.2852,245.5820,104.4015,75.6252,0,U,69655,999,582,.15824488E-2,.57472E-3,0
STARLINK-37876,2026-143H,2026-07-20T14:00:01.999872,15.36955974,.00010563,97.2849,245.6612,103.0969,262.8620,0,U,69656,999,572,.14195672E-2,.51509E-3,0
STARLINK-37784,2026-143J,2026-07-20T09:27:25.994304,15.49203292,.00010855,97.2818,245.4560,97.5434,262.5940,0,U,69657,999,562,.45957106E-3,.24996E-3,0
STARLINK-37851,2026-143K,2026-07-20T14:00:01.999872,15.36944646,.00013781,97.2849,245.6833,91.1820,327.7195,0,U,69658,999,571,.16015455E-2,.58152E-3,0
STARLINK-37229,2026-143L,2026-07-20T14:00:01.999872,15.33420214,.00016731,97.2854,245.6102,89.1003,155.5361,0,U,69659,999,576,.18797429E-2,.61056E-3,0
STARLINK-37556,2026-143M,2026-07-20T14:00:01.999872,15.33426392,.00012678,97.2851,245.5912,100.1460,99.5125,0,U,69660,999,576,.17647386E-2,.57298E-3,0
STARLINK-37867,2026-143N,2026-07-20T14:00:01.999872,15.33393390,.00013336,97.2852,245.6248,69.8195,204.9001,0,U,69661,999,572,.19287711E-2,.6261E-3,0
STARLINK-37852,2026-143P,2026-07-20T14:00:01.999872,15.39029851,.00022135,97.2845,245.6267,70.7117,205.6028,0,U,69662,999,572,-.77962963E-1,-.2641823E-1,0
STARLINK-37554,2026-143Q,2026-07-20T14:00:01.999872,15.36955119,.00015492,97.2853,245.6192,99.6837,169.7975,0,U,69663,999,576,.1526135E-2,.55409E-3,0
STARLINK-37830,2026-143R,2026-07-20T14:00:01.999872,15.37240554,.00014625,97.2848,245.5991,90.9315,134.4956,0,U,69664,999,571,-.95102936E-1,-.3046891E-1,0
STARLINK-37837,2026-143S,2026-07-19T02:46:06.517344,15.36985958,.00005727,97.2825,244.1348,75.1318,284.9990,0,U,69665,999,542,.44704564E-3,.16108E-3,0
STARLINK-37943,2026-143T,2026-07-20T14:00:01.999872,15.36905020,.00011048,97.2845,245.6434,55.2948,257.2092,0,U,69666,999,572,.13731767E-2,.4973E-3,0
STARLINK-37941,2026-143U,2026-07-20T14:00:01.999872,15.36937464,.00016962,97.2851,245.6466,64.1020,269.9394,0,U,69667,999,572,.17742505E-2,.6447E-3,0
STARLINK-37930,2026-143V,2026-07-20T14:00:01.999872,15.36927852,.00012665,97.2850,245.6499,82.2920,259.7769,0,U,69668,999,571,.16720466E-2,.60702E-3,0
STARLINK-37945,2026-143W,2026-07-20T14:00:01.999872,15.37190592,.00007536,97.2842,245.6722,78.2449,321.5354,0,U,69669,999,572,-.15791708E-1,-.535809E-2,0
STARLINK-37948,2026-143X,2026-07-20T02:08:36.200832,15.49225872,.0001605,97.2835,245.1070,120.3890,239.7520,0,U,69670,999,557,.25160519E-3,.13635E-3,0
STARLINK-37949,2026-143Y,2026-07-20T03:06:30.713760,15.49201845,.00008025,97.2829,245.2028,172.7451,187.3812,0,U,69671,999,558,.59764716E-3,.32562E-3,0
STARLINK-37946,2026-143Z,2026-07-20T14:00:01.999872,15.42971680,.00023055,97.2858,245.6954,74.6947,358.4806,0,U,69672,999,572,-.69559187E-1,-.2682831E-1,0
TJS-26A,2026-144A,2026-07-20T06:47:45.824064,1.00271367,.00040251,6.9413,323.2321,350.0449,194.2716,0,U,69674,999,27,0,-.35E-5,0
STARLINK-38005,2026-145A,2026-07-19T13:26:33.847008,15.75203109,.0001134,97.2838,47.6078,83.5509,276.5886,0,U,69677,999,386,.62491E-3,.94165E-3,0
STARLINK-38009,2026-145B,2026-07-20T13:48:21.303648,15.72776591,.00010469,97.2856,48.6768,308.1163,52.0007,0,U,69678,999,402,-.89757903E-2,-.1083529E-1,0
STARLINK-37998,2026-145C,2026-07-20T12:12:39.193344,15.75276562,.00009826,97.2843,48.6141,74.4604,285.6770,0,U,69679,999,401,.11752528E-2,.179571E-2,0
STARLINK-37994,2026-145D,2026-07-20T14:00:01.999872,15.70706609,.00017263,97.2848,48.6850,65.6284,342.2833,0,U,69680,999,529,-.22881252E-1,-.2475163E-1,0
